STARLINK-35689          
1 66494U 25263K   25325.66672454 -.01103981  39799-3 -19319-2 0  9994
2 66494  43.0009 252.5864 0002123 260.4271  80.9392 16.01210608  2243
STARLINK-35832          
1 66495U 25263L   25325.66672454 -.01115660  40748-3 -19077-2 0  9999
2 66495  43.0009 252.5702 0002131 262.0282  85.6833 16.01608488  2243
STARLINK-35909          
1 66496U 25263M   25325.66672454 -.01116935  40884-3 -18972-2 0  9990
2 66496  43.0010 252.5659 0002073 256.7410  92.7016 16.01721729  2241
STARLINK-35899          
1 66497U 25263N   25325.66672454 -.01110830  40516-3 -18770-2 0  9997
2 66497  43.0009 252.5619 0002211 260.4521  90.5115 16.01809489  2241
STARLINK-35907          
1 66498U 25263P   25325.66672454 -.01113711  40753-3 -18709-2 0  9994
2 66498  43.0008 252.5581 0002186 257.8153  94.7118 16.01908986  2242
STARLINK-35816          
1 66499U 25263Q   25325.66672454 -.01125418  41621-3 -18708-2 0  9996
2 66499  43.0009 252.5509 0002121 258.7988  96.5510 16.02090325  2245
STARLINK-35894          
1 66500U 25263R   25325.66672454 -.00991968  33010-3 -16612-2 0  9994
2 66500  43.0008 252.5545 0002320 253.7076 100.1396 16.01940576  2246
STARLINK-35897          
1 66501U 25263S   25325.66672454 -.01125033  41640-3 -18595-2 0  9998
2 66501  43.0009 252.5469 0002071 260.3160  96.6320 16.02186808  2241
STARLINK-35922          
1 66502U 25263T   25325.66672454 -.01128464  42019-3 -18307-2 0  9992
2 66502  43.0010 252.5345 0002147 261.8928  99.9158 16.02502412  2247
STARLINK-35917          
1 66503U 25263U   25325.66672454 -.01132639  42411-3 -18128-2 0  9999
2 66503  43.0010 252.5258 0002140 259.6800 105.5042 16.02730836  2247
STARLINK-35916          
1 66504U 25263V   25325.66672454 -.01121903  41724-3 -17854-2 0  9993
2 66504  43.0010 252.5219 0002053 251.2926 115.4430 16.02824650  2244
STARLINK-34766          
1 66505U 25263W   25325.66672454 -.01130117  42045-3 -18536-2 0  9996
2 66505  43.0012 252.5421 0002000 261.2636  97.5871 16.02318275  2243
STARLINK-34765          
1 66506U 25263X   25325.66672454 -.01123633  41639-3 -18350-2 0  9994
2 66506  43.0013 252.5389 0002052 257.9856 102.1747 16.02389806  2244
STARLINK-34767          
1 66507U 25263Y   25325.66672454 -.01128770  42100-3 -18174-2 0  9990
2 66507  43.0015 252.5300 0002078 257.1338 106.5546 16.02630136  2245
STARLINK-35608          
1 66508U 25263Z   25325.66672454 -.01132564  42496-3 -17922-2 0  9995
2 66508  43.0009 252.5184 0002112 257.5605 110.5622 16.02921099  2240
STARLINK-35598          
1 66509U 25263AA  25325.66672454 -.01130076  42557-3 -17371-2 0  9998
2 66509  43.0006 252.5004 0002117 257.5890 117.5439 16.03405906  2248
STARLINK-35600          
1 66510U 25263AB  25325.66672454 -.01127485  42211-3 -17701-2 0  9994
2 66510  43.0010 252.5132 0002144 257.2570 112.7948 16.03052659  2244
STARLINK-35444          
1 66511U 25263AC  25325.66672454 -.01125853  42209-3 -17432-2 0  9990
2 66511  43.0007 252.5046 0002175 258.6878 114.7504 16.03283905  2245
STARLINK-35366          
1 66512U 25263AD  25325.66672454 -.01129049  42552-3 -17213-2 0  9990
2 66512  43.0005 252.4952 0002095 258.1982 118.8515 16.03542628  2248
STARLINK-35692          
1 66513U 25263AE  25325.66672454 -.01133410  42682-3 -17651-2 0  9998
2 66513  43.0008 252.5084 0002111 259.9229 111.9650 16.03188374  2249
SENTINEL-6B             
1 66514U 25264A   25327.10268524  .00000916  00000+0  39628-2 0  9993
2 66514  66.0400 203.5092 0011539 270.5110  89.4586 12.85877842   761
SZ-21 MODULE            
1 66515U 25246C   25326.90785256  .00025118  00000+0  29174-3 0  9994
2 66515  41.4750 136.9007 0004574 124.5116 235.6155 15.61157645  1348
SHIJIAN-30A             
1 66545U 25266A   25327.10488929  .00009935  00000+0  53041-3 0  9998
2 66545  51.7999  64.8272 0012835 286.6898  73.2670 15.15647068   607
SHIJIAN-30B             
1 66546U 25266B   25327.10552716  .00011235  00000+0  60192-3 0  9996
2 66546  51.7981  64.8314 0010538 285.9888  73.9927 15.15409270   608
SHIJIAN-30C             
1 66547U 25266C   25327.10614847  .00009565  00000+0  51850-3 0  9995
2 66547  51.7991  64.8351 0011266 279.1667  80.8034 15.15160283   604
CZ-2C R/B               
1 66548U 25266D   25326.54701904  .00013369  00000+0  42360-3 0  9997
2 66548  52.0565  67.4342 0085408 104.2669 256.7821 15.29547583   520
GLOBAL-33               
1 66554U 25267A   25325.59612889  .00003575  00000+0  12516-3 0  9990
2 66554  42.0189 178.9818 0006750 273.7217  86.2848 15.30949686   165
ELECTRON KICK STAGE R/B 
1 66555U 25267B   25325.59577065  .00003645  00000+0  12531-3 0  9992
2 66555  42.0193 178.9984 0008826 283.6443  76.3411 15.31490022   164
ELECTRON R/B            
1 66556U 25267C   25325.68896391  .00330020  73273-5  18540-3 0  9993
2 66556  42.0620 178.0185 0218594 275.5638  82.0326 15.83492186   186
TJS-21                  
1 66586U 25269A   25326.02703546  .00002407  00000+0  52951-3 0  9997
2 66586  51.0640 174.7014 7516027 225.0831  41.6475  2.00919486    20
CZ-3B R/B               
1 66587U 25269B   25325.52943694  .00006929 -86139-6  51894-3 0  9995
2 66587  51.3636 174.5119 7521144 224.9566  41.7220  2.01465750    22
